BANDWAGON-2 OBJECT D    
1 62380U 24247D   26068.52261193  .00011259  00000+0  40119-3 0  9994
2 62380  44.9954 115.6710 0003488 351.1453   8.9368 15.29076102 67732
STARLINK-33730          
1 63439U 25069G   26068.52764547  .00032132  00000+0  10922-2 0  9995
2 63439  53.1607 142.9653 0000900 146.1585 213.9474 15.30202885 53381
